{
"type": "FeatureCollection",
"name": "all_city_aois",
"crs": { "type": "name", "properties": { "name": "urn:ogc:def:crs:OGC:1.3:CRS84" } },
"features": [
{ "type": "Feature", "properties": { "city_id": "DE01", "city_name": "Mannheim", "country": "DE", "split": "train", "aoi_size_km": 30.0, "utm_epsg": 32632, "center_lat": 49.4875, "center_lon": 8.466 }, "geometry": { "type": "Polygon", "coordinates": [ [ [ 8.673998684450966, 49.353348457932178 ], [ 8.67220191092137, 49.62318963061113 ], [ 8.25686319164285, 49.621268546033697 ], [ 8.260936213941653, 49.351445486189427 ], [ 8.673998684450966, 49.353348457932178 ] ] ] } },
{ "type": "Feature", "properties": { "city_id": "DE02", "city_name": "Heidelberg", "country": "DE", "split": "train", "aoi_size_km": 30.0, "utm_epsg": 32632, "center_lat": 49.3988, "center_lon": 8.6724 }, "geometry": { "type": "Polygon", "coordinates": [ [ [ 8.879463789378113, 49.264274764326274 ], [ 8.87880153420547, 49.534123911064704 ], [ 8.464203563805716, 49.532946892222775 ], [ 8.467131113192487, 49.263108837992995 ], [ 8.879463789378113, 49.264274764326274 ] ] ] } },
{ "type": "Feature", "properties": { "city_id": "DE03", "city_name": "Karlsruhe", "country": "DE", "split": "train", "aoi_size_km": 30.0, "utm_epsg": 32632, "center_lat": 49.0069, "center_lon": 8.4037 }, "geometry": { "type": "Polygon", "coordinates": [ [ [ 8.609854697588087, 48.872845153880888 ], [ 8.607740593798404, 49.142706987385374 ], [ 8.196437146107417, 49.140577081268525 ], [ 8.200767563523488, 48.870735280247793 ], [ 8.609854697588087, 48.872845153880888 ] ] ] } },
{ "type": "Feature", "properties": { "city_id": "DE04", "city_name": "Stuttgart", "country": "DE", "split": "train", "aoi_size_km": 30.0, "utm_epsg": 32632, "center_lat": 48.7758, "center_lon": 9.1829 }, "geometry": { "type": "Polygon", "coordinates": [ [ [ 9.386027222462605, 48.640357146317555 ], [ 9.388101930825574, 48.910230048021724 ], [ 8.978678431248845, 48.910881081351292 ], [ 8.978792415158049, 48.64100206271835 ], [ 9.386027222462605, 48.640357146317555 ] ] ] } },
{ "type": "Feature", "properties": { "city_id": "DE05", "city_name": "Munich", "country": "DE", "split": "train", "aoi_size_km": 30.0, "utm_epsg": 32632, "center_lat": 48.1351, "center_lon": 11.582 }, "geometry": { "type": "Polygon", "coordinates": [ [ [ 11.77611787937397, 47.995598814379562 ], [ 11.790697685648581, 48.265189428494821 ], [ 11.386829757542367, 48.274287257095686 ], [ 11.374354673417795, 48.004611471966207 ], [ 11.77611787937397, 47.995598814379562 ] ] ] } },
{ "type": "Feature", "properties": { "city_id": "DE06", "city_name": "Nuremberg", "country": "DE", "split": "train", "aoi_size_km": 30.0, "utm_epsg": 32632, "center_lat": 49.4521, "center_lon": 11.0767 }, "geometry": { "type": "Polygon", "coordinates": [ [ [ 11.277258911995018, 49.313381709519852 ], [ 11.289789119534998, 49.583014615880344 ], [ 10.87500798731754, 49.590480170941326 ], [ 10.864743977456135, 49.320776932403945 ], [ 11.277258911995018, 49.313381709519852 ] ] ] } },
{ "type": "Feature", "properties": { "city_id": "DE07", "city_name": "Frankfurt", "country": "DE", "split": "train", "aoi_size_km": 30.0, "utm_epsg": 32632, "center_lat": 50.1109, "center_lon": 8.6821 }, "geometry": { "type": "Polygon", "coordinates": [ [ [ 8.892186102189356, 49.976375292307132 ], [ 8.891578609725281, 50.246191218237783 ], [ 8.470835251292499, 50.245037090842715 ], [ 8.473800037400407, 49.975232086111447 ], [ 8.892186102189356, 49.976375292307132 ] ] ] } },
{ "type": "Feature", "properties": { "city_id": "DE08", "city_name": "Cologne", "country": "DE", "split": "train", "aoi_size_km": 30.0, "utm_epsg": 32632, "center_lat": 50.9375, "center_lon": 6.9603 }, "geometry": { "type": "Polygon", "coordinates": [ [ [ 7.178930789418383, 50.806210903199265 ], [ 7.168363779065008, 51.075851462079328 ], [ 6.740437120812945, 51.068360300090475 ], [ 6.753468314941805, 50.79879097779709 ], [ 7.178930789418383, 50.806210903199265 ] ] ] } },
{ "type": "Feature", "properties": { "city_id": "DE09", "city_name": "Dusseldorf", "country": "DE", "split": "train", "aoi_size_km": 30.0, "utm_epsg": 32632, "center_lat": 51.2277, "center_lon": 6.7735 }, "geometry": { "type": "Polygon", "coordinates": [ [ [ 6.994040715497405, 51.096787983752506 ], [ 6.982279720665255, 51.366385794041797 ], [ 6.551707177569326, 51.358175727702552 ], [ 6.565972391036355, 51.088656149042748 ], [ 6.994040715497405, 51.096787983752506 ] ] ] } },
{ "type": "Feature", "properties": { "city_id": "DE10", "city_name": "Dortmund", "country": "DE", "split": "train", "aoi_size_km": 30.0, "utm_epsg": 32632, "center_lat": 51.5136, "center_lon": 7.4653 }, "geometry": { "type": "Polygon", "coordinates": [ [ [ 7.685281121245947, 51.381387105596509 ], [ 7.677492944069503, 51.651066686292609 ], [ 7.244043989760136, 51.645384432546273 ], [ 7.254381948320121, 51.375759138671008 ], [ 7.685281121245947, 51.381387105596509 ] ] ] } },
{ "type": "Feature", "properties": { "city_id": "DE11", "city_name": "Hamburg", "country": "DE", "split": "train", "aoi_size_km": 30.0, "utm_epsg": 32632, "center_lat": 53.5511, "center_lon": 9.9937 }, "geometry": { "type": "Polygon", "coordinates": [ [ [ 10.216196153640942, 53.41420495663516 ], [ 10.223951137016805, 53.683801700500744 ], [ 9.769765423531187, 53.687581871728788 ], [ 9.764887283055803, 53.417948314431861 ], [ 10.216196153640942, 53.41420495663516 ] ] ] } },
{ "type": "Feature", "properties": { "city_id": "DE12", "city_name": "Bremen", "country": "DE", "split": "train", "aoi_size_km": 30.0, "utm_epsg": 32632, "center_lat": 53.0793, "center_lon": 8.8017 }, "geometry": { "type": "Polygon", "coordinates": [ [ [ 9.025543356017808, 52.944621277180403 ], [ 9.025703476592234, 53.214300535024115 ], [ 8.576457395745496, 53.21355070979611 ], [ 8.579095772166275, 52.943878719695917 ], [ 9.025543356017808, 52.944621277180403 ] ] ] } },
{ "type": "Feature", "properties": { "city_id": "DE13", "city_name": "Hanover", "country": "DE", "split": "train", "aoi_size_km": 30.0, "utm_epsg": 32632, "center_lat": 52.3759, "center_lon": 9.732 }, "geometry": { "type": "Polygon", "coordinates": [ [ [ 9.949431548369546, 52.239491393002069 ], [ 9.955232576688188, 52.509165647787164 ], [ 9.513226525867305, 52.511907961985301 ], [ 9.510109347293824, 52.242207307134343 ], [ 9.949431548369546, 52.239491393002069 ] ] ] } },
{ "type": "Feature", "properties": { "city_id": "DE14", "city_name": "Berlin", "country": "DE", "split": "train", "aoi_size_km": 30.0, "utm_epsg": 32633, "center_lat": 52.52, "center_lon": 13.405 }, "geometry": { "type": "Polygon", "coordinates": [ [ [ 13.630191674429925, 52.387957200139375 ], [ 13.621777498788871, 52.657584315919266 ], [ 13.17845665744921, 52.651598079364462 ], [ 13.189574173268946, 52.382028651421535 ], [ 13.630191674429925, 52.387957200139375 ] ] ] } },
{ "type": "Feature", "properties": { "city_id": "DE15", "city_name": "Leipzig", "country": "DE", "split": "val", "aoi_size_km": 30.0, "utm_epsg": 32633, "center_lat": 51.3397, "center_lon": 12.3731 }, "geometry": { "type": "Polygon", "coordinates": [ [ [ 12.595296461814499, 51.209567925071958 ], [ 12.581141850492939, 51.479087771344147 ], [ 12.149644847859559, 51.469387181446969 ], [ 12.166316845518113, 51.199959821793556 ], [ 12.595296461814499, 51.209567925071958 ] ] ] } },
{ "type": "Feature", "properties": { "city_id": "DE16", "city_name": "Dresden", "country": "DE", "split": "val", "aoi_size_km": 30.0, "utm_epsg": 32633, "center_lat": 51.0504, "center_lon": 13.7373 }, "geometry": { "type": "Polygon", "coordinates": [ [ [ 13.954295669766058, 50.917650563864846 ], [ 13.948202912505778, 51.187377896591741 ], [ 13.519062326299172, 51.182732458186955 ], [ 13.527639094089496, 50.913049354516914 ], [ 13.954295669766058, 50.917650563864846 ] ] ] } },
{ "type": "Feature", "properties": { "city_id": "DE17", "city_name": "Munster", "country": "DE", "split": "val", "aoi_size_km": 30.0, "utm_epsg": 32632, "center_lat": 51.9607, "center_lon": 7.6261 }, "geometry": { "type": "Polygon", "coordinates": [ [ [ 7.847813678052134, 51.828205150607914 ], [ 7.840877666911736, 52.097880692749619 ], [ 7.403077619503182, 52.092762576833714 ], [ 7.412631038724471, 51.823136116252243 ], [ 7.847813678052134, 51.828205150607914 ] ] ] } },
{ "type": "Feature", "properties": { "city_id": "DE18", "city_name": "Freiburg", "country": "DE", "split": "test", "aoi_size_km": 30.0, "utm_epsg": 32632, "center_lat": 47.999, "center_lon": 7.8421 }, "geometry": { "type": "Polygon", "coordinates": [ [ [ 8.045636363617364, 47.865910186743719 ], [ 8.040645207993975, 48.135788077092116 ], [ 7.637515641349053, 48.131715645245464 ], [ 7.64460278882422, 47.861875891838487 ], [ 8.045636363617364, 47.865910186743719 ] ] ] } },
{ "type": "Feature", "properties": { "city_id": "DE19", "city_name": "Kiel", "country": "DE", "split": "test", "aoi_size_km": 30.0, "utm_epsg": 32632, "center_lat": 54.3233, "center_lon": 10.1228 }, "geometry": { "type": "Polygon", "coordinates": [ [ [ 10.348958564477591, 54.186158320476423 ], [ 10.357807379848145, 54.455706107721312 ], [ 9.895134428163589, 54.460019086591494 ], [ 9.889299624110979, 54.190428934965475 ], [ 10.348958564477591, 54.186158320476423 ] ] ] } },
{ "type": "Feature", "properties": { "city_id": "DE20", "city_name": "Rostock", "country": "DE", "split": "test", "aoi_size_km": 30.0, "utm_epsg": 32633, "center_lat": 54.0924, "center_lon": 12.0991 }, "geometry": { "type": "Polygon", "coordinates": [ [ [ 12.336811622271091, 53.963036575660254 ], [ 12.319489612321732, 54.232376339801476 ], [ 11.8599088901122, 54.221269332552346 ], [ 11.880189883801032, 53.952038259006841 ], [ 12.336811622271091, 53.963036575660254 ] ] ] } }
]
}
